ONEWEB-0339             
1 49205U 21083V   25342.60476294 -.00000153  00000+0 -45515-3 0  9991
2 49205  87.8978 358.1128 0001724  86.7403 273.3923 13.13470526205872
ONEWEB-0340             
1 49206U 21083W   25342.60824304  .00000043  00000+0  76406-4 0  9991
2 49206  87.9185  13.3025 0001731  96.9075 263.2255 13.18685493204855
ONEWEB-0341             
1 49207U 21083X   25342.61483827 -.00000027  00000+0 -10078-3 0  9990
2 49207  87.9181  13.3127 0001312  86.4961 273.6322 13.18685646204870
ONEWEB-0342             
1 49208U 21083Y   25342.44375488  .00000067  00000+0  13294-3 0  9990
2 49208  87.9199 312.4746 0001892  79.8504 280.2842 13.20770829211603
ONEWEB-0343             
1 49209U 21083Z   25342.62308213  .00000911  00000+0  22782-2 0  9992
2 49209  87.9185  13.3035 0001765  77.2090 282.9239 13.18680097204928
ONEWEB-0344             
1 49210U 21083AA  25342.59968683 -.00000071  00000+0 -23027-3 0  9996
2 49210  87.8969 358.1462 0001354  88.2332 271.8952 13.13470186205873
ONEWEB-0345             
1 49211U 21083AB  25342.59122336  .00000205  00000+0  52555-3 0  9999
2 49211  87.8977 358.1072 0001394  85.1719 274.9570 13.13470610205882
ONEWEB-0346             
1 49212U 21083AC  25342.61977825  .00000049  00000+0  91588-4 0  9990
2 49212  87.9179  13.3196 0001811 115.9271 244.2048 13.18686890204865
ONEWEB-0348             
1 49213U 21083AD  25342.43428438  .00000037  00000+0  59303-4 0  9998
2 49213  87.9192 312.4825 0001293  93.3663 266.7618 13.20770134211634
ONEWEB-0350             
1 49214U 21083AE  25342.60053388 -.00000088  00000+0 -27640-3 0  9992
2 49214  87.8981 358.1026 0001381  91.5613 268.5674 13.13470146205911
ONEWEB-0351             
1 49215U 21083AF  25342.42782826  .00000099  00000+0  21224-3 0  9991
2 49215  87.9197 312.4800 0002249  61.5161 298.6199 13.20774206211593
ONEWEB-0352             
1 49216U 21083AG  25342.58107256  .00000379  00000+0  10042-2 0  9993
2 49216  87.8968 358.1300 0001898  79.1023 281.0320 13.13470516206003
ONEWEB-0354             
1 49217U 21083AH  25342.45321370  .00000025  00000+0  29394-4 0  9995
2 49217  87.9200 312.4739 0001550  84.4088 275.7222 13.20769878211634
ONEWEB-0355             
1 49218U 21083AJ  25342.60998102 -.00000277  00000+0 -79457-3 0  9991
2 49218  87.8972 358.1369 0001623  84.6134 275.5180 13.13470634205883
ONEWEB-0357             
1 49219U 21083AK  25342.45005236  .00000047  00000+0  82973-4 0  9993
2 49219  87.9198 312.4709 0001786  78.5964 281.5370 13.20773743211632
JILIN-1 GAOFEN 2D       
1 49256U 21086A   25342.60068171  .00007900  00000+0  50273-3 0  9993
2 49256  97.6296 101.0693 0036234  77.2474 283.2800 15.08507466231962
SHIYAN-10 01 (SY-10 01) 
1 49258U 21087A   25341.98995259  .00000644  00000+0  00000+0 0  9999
2 49258  63.0917 242.4542 6971238 269.8639  17.3479  2.00641788 30693
LANDSAT 9               
1 49260U 21088A   25342.63925253  .00000926  00000+0  21557-3 0  9990
2 49260  98.2099  50.8097 0001114  94.4212 265.7114 14.57124628223258
CS1                     
1 49261U 21088B   25342.39884325  .00017672  00000+0  63417-3 0  9995
2 49261  97.4050  41.1775 0014666  43.7488 316.4911 15.28649579231211
CS2                     
1 49262U 21088C   25342.13166101  .00019414  00000+0  67277-3 0  9997
2 49262  97.4100  42.8111 0012255  49.1970 311.0331 15.29802106231246
CUTE                    
1 49263U 21088D   25342.47291211  .00043921  00000+0  57945-3 0  9997
2 49263  97.4354  65.1317 0004449 290.4854  69.5924 15.58269646232637
CUPID                   
1 49264U 21088E   25342.63948610  .00011785  00000+0  50829-3 0  9995
2 49264  97.4157  41.1989 0013645  21.7466 338.4347 15.22615337231156
ONEWEB-0332             
1 49279U 21090A   25342.46747329 -.00000018  00000+0 -82542-4 0  9996
2 49279  87.8974 327.7144 0002030  84.9376 275.1986 13.14503174202524
ONEWEB-0347             
1 49280U 21090B   25342.44059948  .00000061  00000+0  11799-3 0  9990
2 49280  87.9190 312.4835 0002100  86.2696 273.8678 13.20773528205865
ONEWEB-0349             
1 49281U 21090C   25342.62366396 -.00000211  00000+0 -55164-3 0  9992
2 49281  87.9185 312.4455 0001813  81.1989 278.9350 13.20771836204678
ONEWEB-0353             
1 49282U 21090D   25342.45953204 -.00000165  00000+0 -47961-3 0  9998
2 49282  87.8989 327.7013 0002071  86.0297 274.1070 13.14504135202520
ONEWEB-0356             
1 49283U 21090E   25342.62209291  .00000094  00000+0  20008-3 0  9990
2 49283  87.9195 312.4382 0002170 108.3350 251.8020 13.20770867204678
ONEWEB-0358             
1 49284U 21090F   25342.42480889  .00000195  00000+0  44828-3 0  9991
2 49284  87.9198 312.4786 0001715  86.6931 273.4399 13.20770099205371
ONEWEB-0359             
1 49285U 21090G   25342.42165679  .00000159  00000+0  35875-3 0  9991
2 49285  87.9187 312.4790 0001398  85.0189 275.1104 13.20772705205357
ONEWEB-0360             
1 49286U 21090H   25342.41220013  .00000137  00000+0  30385-3 0  9992
2 49286  87.9186 312.4892 0001697  82.9542 277.1784 13.20772907204664
ONEWEB-0361             
1 49287U 21090J   25342.62051984  .00000173  00000+0  39439-3 0  9994
2 49287  87.9186 312.4434 0001780  89.0129 271.1209 13.20773663205149
ONEWEB-0362             
1 49288U 21090K   25342.49799698  .00000134  00000+0  30193-3 0  9996
2 49288  87.9188 342.9290 0001751  80.8028 279.3303 13.19724333201762
ONEWEB-0363             
1 49289U 21090L   25342.63631125  .00000155  00000+0  34900-3 0  9996
2 49289  87.9199 312.4383 0001832  94.9325 265.2018 13.20770958205156
ONEWEB-0364             
1 49290U 21090M   25342.44691299  .00000004  00000+0 -21465-4 0  9992
2 49290  87.9191 312.5000 0001854  88.0964 272.0382 13.20770420206261
ONEWEB-0365             
1 49291U 21090N   25342.50747607  .00000019  00000+0  14003-4 0  9990
2 49291  87.9210 342.8916 0001878  86.5578 273.5769 13.19724089201275
ONEWEB-0366             
1 49292U 21090P   25342.45637145 -.00000177  00000+0 -51178-3 0  9990
2 49292  87.8980 327.7188 0001756  88.3037 271.8294 13.14502983202500
ONEWEB-0367             
1 49293U 21090Q   25342.63473153  .00000101  00000+0  21719-3 0  9991
2 49293  87.9202 312.4380 0001864  77.2449 282.8893 13.20769967204679
ONEWEB-0368             
1 49294U 21090R   25342.45639246  .00000061  00000+0  11926-3 0  9993
2 49294  87.9191 312.5035 0002537  93.1455 266.9969 13.20770638205807
ONEWEB-0369             
1 49295U 21090S   25342.50272824  .00000087  00000+0  18601-3 0  9990
2 49295  87.9196 342.9201 0001891  88.1116 272.0233 13.19723667201261
ONEWEB-0370             
1 49296U 21090T   25342.41692458  .00000103  00000+0  22026-3 0  9995
2 49296  87.9194 312.4862 0001608  75.8080 284.3232 13.20770585204681
ONEWEB-0371             
1 49297U 21090U   25342.51063040  .00000059  00000+0  11425-3 0  9997
2 49297  87.9196 342.9057 0001790  85.9375 274.1962 13.19724173201302
ONEWEB-0372             
1 49298U 21090V   25342.63299944  .00000066  00000+0  13142-3 0  9991
2 49298  87.9189 312.4435 0001913  82.8565 277.2786 13.20769763204689
ONEWEB-0373             
1 49299U 21090W   25342.43269384  .00000015  00000+0  40760-5 0  9997
2 49299  87.9189 312.4964 0001708  85.1420 274.9909 13.20774013205849
ONEWEB-0374             
1 49300U 21090X   25342.51978652 -.00000123  00000+0 -36510-3 0  9992
2 49300  87.8986 327.6838 0002039 101.9674 258.1684 13.14504250202512
ONEWEB-0375             
1 49301U 21090Y   25342.42007575 -.00003004  00000+0 -74225-2 0  9995
2 49301  87.9194 312.4794 0001755 100.2178 259.9154 13.20784181205348
ONEWEB-0376             
1 49302U 21090Z   25342.50904095  .00000067  00000+0  13418-3 0  9990
2 49302  87.9204 342.8935 0001973  84.9121 275.2237 13.19727171201302
ONEWEB-0377             
1 49303U 21090AA  25342.40600360  .00000062  00000+0  12090-3 0  9998
2 49303  87.9199 312.4829 0001600  84.1969 275.9347 13.20773500205335
ONEWEB-0378             
1 49304U 21090AB  25342.42811256  .00000073  00000+0  14770-3 0  9998
2 49304  87.9196 312.4929 0001821  88.1171 272.0171 13.20770436204605
ONEWEB-0379             
1 49305U 21090AC  25342.51502906 -.00000027  00000+0 -10725-3 0  9995
2 49305  87.8988 327.6936 0001861  88.7079 271.4264 13.14500495202510
ONEWEB-0380             
1 49306U 21090AD  25342.50589472  .00000061  00000+0  11920-3 0  9992
2 49306  87.9199 342.9164 0001618  94.3227 265.8091 13.19723893201278
ONEWEB-0381             
1 49307U 21090AE  25342.62998853  .00000170  00000+0  38591-3 0  9997
2 49307  87.9194 312.4411 0001745  91.9936 268.1397 13.20770379204677
ONEWEB-0382             
1 49308U 21090AF  25342.61735015  .00000114  00000+0  24892-3 0  9993
2 49308  87.9198 312.4393 0001836  93.1943 266.9400 13.20774517204662
ONEWEB-0383             
1 49309U 21090AG  25342.50869907  .00000111  00000+0  26565-3 0  9996
2 49309  87.8990 327.6794 0001898  90.4100 269.7247 13.14503187202549
ONEWEB-0384             
1 49310U 21090AH  25342.61086217  .00000105  00000+0  22582-3 0  9993
2 49310  87.9207 312.4761 0002052  97.5720 262.5647 13.20799281204678
ONEWEB-0385             
1 49311U 21090AJ  25342.60946486  .00000047  00000+0  84596-4 0  9995
2 49311  87.9190 312.4461 0001837  88.8314 271.3030 13.20769466204642
ONEWEB-0386             
1 49312U 21090AK  25342.62683127  .00000048  00000+0  86902-4 0  9992
2 49312  87.9198 312.4264 0001946  91.4597 268.6759 13.20770182204662
ONEWEB-0387             
1 49313U 21090AL  25342.45954139  .00000063  00000+0  12395-3 0  9999
2 49313  87.9189 312.5055 0001532  89.1843 270.9466 13.20774079204649
ONEWEB-0388             
1 49314U 21090AM  25342.57696709  .00000112  00000+0  24681-3 0  9995
2 49314  87.9189 342.9034 0001845  93.8096 266.3248 13.19723650201273
2021-091B               
1 49316U 21091B   25342.63915863  .00006314  00000+0  30325-3 0  9992
2 49316  97.4444 168.2049 0010534 311.0545  48.9779 15.19148793230073
